[{"OBJECT_NAME":"COSMOS 2579","OBJECT_ID":"2024-197A","EPOCH":"2026-03-09T23:06:38.118816","MEAN_MOTION":15.2412329,"ECCENTRICITY":0.00026117,"INCLINATION":97.557,"RA_OF_ASC_NODE":352.0823,"ARG_OF_PERICENTER":56.3903,"MEAN_ANOMALY":303.7583,"EPHEMERIS_TYPE":0,"CLASSIFICATION_TYPE":"U","NORAD_CAT_ID":61730,"ELEMENT_SET_NO":999,"REV_AT_EPOCH":7535,"BSTAR":0.00021686366,"MEAN_MOTION_DOT":5.199e-5,"MEAN_MOTION_DDOT":0},{"OBJECT_NAME":"OBJECT AD","OBJECT_ID":"2025-313AD","EPOCH":"2026-03-09T22:39:46.024416","MEAN_MOTION":15.21252673,"ECCENTRICITY":0.00138238,"INCLINATION":97.3979,"RA_OF_ASC_NODE":145.1661,"ARG_OF_PERICENTER":2.1254,"MEAN_ANOMALY":358.0038,"EPHEMERIS_TYPE":0,"CLASSIFICATION_TYPE":"U","NORAD_CAT_ID":67275,"ELEMENT_SET_NO":999,"REV_AT_EPOCH":1085,"BSTAR":0.00040975515,"MEAN_MOTION_DOT":9.111e-5,"MEAN_MOTION_DDOT":0}]
